{
  "type": "FeatureCollection",
  "features": [
    {
      "type": "Feature",
      "properties": {
        "norad_id": 34420,
        "name": "COSMOS 2251 DEB",
        "group": "cosmos-2251-debris",
        "lat": -72.44471914383178,
        "lon": -15.914304996034073,
        "alt_km": 617.9612887531348,
        "timestamp": "2025-12-15T04:01:20.846259+00:00",
        "meta_object_name": "COSMOS 2251 DEB",
        "meta_object_id": "1993-036RM",
        "meta_epoch": "2025-12-14T02:33:35.874144",
        "meta_mean_motion": 14.68303763,
        "meta_eccentricity": 0.01065822,
        "meta_inclination": 74.0335,
        "meta_ra_of_asc_node": 101.3147,
        "meta_arg_of_pericenter": 222.1308,
        "meta_mean_anomaly": 193.9695,
        "meta_ephemeris_type": 0,
        "meta_classification_type": "U",
        "meta_norad_cat_id": 34420,
        "meta_element_set_no": 999,
        "meta_rev_at_epoch": 89790,
        "meta_bstar": 0.00031747353,
        "meta_mean_motion_dot": 1.961e-05,
        "meta_mean_motion_ddot": 0,
        "tle_line1": "1 34420U 93036RM  25348.10666521  .00001961  00000+0  31747-3 0  9994",
        "tle_line2": "2 34420  74.0335 101.3147 0106582 222.1308 193.9695 14.68303763897900"
      },
      "geometry": {
        "type": "Point",
        "coordinates": [
          -15.914304996034073,
          -72.44471914383178
        ]
      }
    },
    {
      "type": "Feature",
      "properties": {
        "norad_id": 34425,
        "name": "COSMOS 2251 DEB",
        "group": "cosmos-2251-debris",
        "lat": -60.14295420594682,
        "lon": 19.91720547021341,
        "alt_km": 701.7037027314118,
        "timestamp": "2025-12-15T04:01:20.846274+00:00",
        "meta_object_name": "COSMOS 2251 DEB",
        "meta_object_id": "1993-036RS",
        "meta_epoch": "2025-12-14T06:58:14.049696",
        "meta_mean_motion": 14.62141508,
        "meta_eccentricity": 0.00247244,
        "meta_inclination": 74.0204,
        "meta_ra_of_asc_node": 51.5441,
        "meta_arg_of_pericenter": 177.6549,
        "meta_mean_anomaly": 182.4739,
        "meta_ephemeris_type": 0,
        "meta_classification_type": "U",
        "meta_norad_cat_id": 34425,
        "meta_element_set_no": 999,
        "meta_rev_at_epoch": 88763,
        "meta_bstar": 0.00063286817,
        "meta_mean_motion_dot": 3.168e-05,
        "meta_mean_motion_ddot": 0,
        "tle_line1": "1 34425U 93036RS  25348.29044039  .00003168  00000+0  63287-3 0  9998",
        "tle_line2": "2 34425  74.0204  51.5441 0024724 177.6549 182.4739 14.62141508887633"
      },
      "geometry": {
        "type": "Point",
        "coordinates": [
          19.91720547021341,
          -60.14295420594682
        ]
      }
    },
    {
      "type": "Feature",
      "properties": {
        "norad_id": 34429,
        "name": "COSMOS 2251 DEB",
        "group": "cosmos-2251-debris",
        "lat": -27.791745338823922,
        "lon": 154.01200551694222,
        "alt_km": 438.38385832566746,
        "timestamp": "2025-12-15T04:01:20.846285+00:00",
        "meta_object_name": "COSMOS 2251 DEB",
        "meta_object_id": "1993-036RW",
        "meta_epoch": "2025-12-13T23:06:53.167104",
        "meta_mean_motion": 15.42262962,
        "meta_eccentricity": 0.0007957,
        "meta_inclination": 73.9696,
        "meta_ra_of_asc_node": 165.3506,
        "meta_arg_of_pericenter": 3.0567,
        "meta_mean_anomaly": 122.2327,
        "meta_ephemeris_type": 0,
        "meta_classification_type": "U",
        "meta_norad_cat_id": 34429,
        "meta_element_set_no": 999,
        "meta_rev_at_epoch": 89467,
        "meta_bstar": 0.0057256266,
        "meta_mean_motion_dot": 0.00254856,
        "meta_mean_motion_ddot": 0,
        "tle_line1": "1 34429U 93036RW  25347.96311536  .00254856  00000+0  57256-2 0  9994",
        "tle_line2": "2 34429  73.9696 165.3506 0007957   3.0567 122.2327 15.42262962894671"
      },
      "geometry": {
        "type": "Point",
        "coordinates": [
          154.01200551694222,
          -27.791745338823922
        ]
      }
    },
    {
      "type": "Feature",
      "properties": {
        "norad_id": 34430,
        "name": "COSMOS 2251 DEB",
        "group": "cosmos-2251-debris",
        "lat": -56.26494512671672,
        "lon": 144.23600611241778,
        "alt_km": 792.8527082309747,
        "timestamp": "2025-12-15T04:01:20.846295+00:00",
        "meta_object_name": "COSMOS 2251 DEB",
        "meta_object_id": "1993-036RX",
        "meta_epoch": "2025-12-14T06:53:49.053984",
        "meta_mean_motion": 14.39639654,
        "meta_eccentricity": 0.00604242,
        "meta_inclination": 74.0521,
        "meta_ra_of_asc_node": 300.5065,
        "meta_arg_of_pericenter": 9.7754,
        "meta_mean_anomaly": 350.456,
        "meta_ephemeris_type": 0,
        "meta_classification_type": "U",
        "meta_norad_cat_id": 34430,
        "meta_element_set_no": 999,
        "meta_rev_at_epoch": 87977,
        "meta_bstar": 0.00065545697,
        "meta_mean_motion_dot": 2.068e-05,
        "meta_mean_motion_ddot": 0,
        "tle_line1": "1 34430U 93036RX  25348.28737331  .00002068  00000+0  65546-3 0  9995",
        "tle_line2": "2 34430  74.0521 300.5065 0060424   9.7754 350.4560 14.39639654879773"
      },
      "geometry": {
        "type": "Point",
        "coordinates": [
          144.23600611241778,
          -56.26494512671672
        ]
      }
    },
    {
      "type": "Feature",
      "properties": {
        "norad_id": 34431,
        "name": "COSMOS 2251 DEB",
        "group": "cosmos-2251-debris",
        "lat": 44.23818199893274,
        "lon": -173.0516930099456,
        "alt_km": 807.5662922374568,
        "timestamp": "2025-12-15T04:01:20.846305+00:00",
        "meta_object_name": "COSMOS 2251 DEB",
        "meta_object_id": "1993-036RY",
        "meta_epoch": "2025-12-13T21:33:20.776032",
        "meta_mean_motion": 14.28778967,
        "meta_eccentricity": 0.00682155,
        "meta_inclination": 74.0747,
        "meta_ra_of_asc_node": 173.103,
        "meta_arg_of_pericenter": 158.4956,
        "meta_mean_anomaly": 201.9084,
        "meta_ephemeris_type": 0,
        "meta_classification_type": "U",
        "meta_norad_cat_id": 34431,
        "meta_element_set_no": 999,
        "meta_rev_at_epoch": 87159,
        "meta_bstar": 0.00083611638,
        "meta_mean_motion_dot": 2.135e-05,
        "meta_mean_motion_ddot": 0,
        "tle_line1": "1 34431U 93036RY  25347.89815713  .00002135  00000+0  83612-3 0  9992",
        "tle_line2": "2 34431  74.0747 173.1030 0068215 158.4956 201.9084 14.28778967871594"
      },
      "geometry": {
        "type": "Point",
        "coordinates": [
          -173.0516930099456,
          44.23818199893274
        ]
      }
    },
    {
      "type": "Feature",
      "properties": {
        "norad_id": 34432,
        "name": "COSMOS 2251 DEB",
        "group": "cosmos-2251-debris",
        "lat": -7.581732676256338,
        "lon": -79.739033777092,
        "alt_km": 755.8095683586098,
        "timestamp": "2025-12-15T04:01:20.846315+00:00",
        "meta_object_name": "COSMOS 2251 DEB",
        "meta_object_id": "1993-036RZ",
        "meta_epoch": "2025-12-14T08:35:08.171808",
        "meta_mean_motion": 14.02917419,
        "meta_eccentricity": 0.01823766,
        "meta_inclination": 73.8284,
        "meta_ra_of_asc_node": 99.4738,
        "meta_arg_of_pericenter": 181.913,
        "meta_mean_anomaly": 236.9212,
        "meta_ephemeris_type": 0,
        "meta_classification_type": "U",
        "meta_norad_cat_id": 34432,
        "meta_element_set_no": 999,
        "meta_rev_at_epoch": 85707,
        "meta_bstar": 0.0015184564,
        "meta_mean_motion_dot": 2.701e-05,
        "meta_mean_motion_ddot": 0,
        "tle_line1": "1 34432U 93036RZ  25348.35773347  .00002701  00000+0  15185-2 0  9999",
        "tle_line2": "2 34432  73.8284  99.4738 0182376 181.9130 236.9212 14.02917419857070"
      },
      "geometry": {
        "type": "Point",
        "coordinates": [
          -79.739033777092,
          -7.581732676256338
        ]
      }
    },
    {
      "type": "Feature",
      "properties": {
        "norad_id": 34433,
        "name": "COSMOS 2251 DEB",
        "group": "cosmos-2251-debris",
        "lat": -57.46081739176773,
        "lon": 123.93768721570399,
        "alt_km": 748.007010807698,
        "timestamp": "2025-12-15T04:01:20.846326+00:00",
        "meta_object_name": "COSMOS 2251 DEB",
        "meta_object_id": "1993-036SA",
        "meta_epoch": "2025-12-13T13:13:15.212064",
        "meta_mean_motion": 14.12858633,
        "meta_eccentricity": 0.01523461,
        "meta_inclination": 74.0111,
        "meta_ra_of_asc_node": 153.5036,
        "meta_arg_of_pericenter": 291.4042,
        "meta_mean_anomaly": 67.0903,
        "meta_ephemeris_type": 0,
        "meta_classification_type": "U",
        "meta_norad_cat_id": 34433,
        "meta_element_set_no": 999,
        "meta_rev_at_epoch": 85961,
        "meta_bstar": 0.0014808328,
        "meta_mean_motion_dot": 3.05e-05,
        "meta_mean_motion_ddot": 0,
        "tle_line1": "1 34433U 93036SA  25347.55087051  .00003050  00000+0  14808-2 0  9990",
        "tle_line2": "2 34433  74.0111 153.5036 0152346 291.4042  67.0903 14.12858633859614"
      },
      "geometry": {
        "type": "Point",
        "coordinates": [
          123.93768721570399,
          -57.46081739176773
        ]
      }
    }
  ]
}